     2.10           N: GPS NAV DATA                         RINEX VERSION / TYPE
Convert v1.8.0                          07-Jun-16 18:54     PGM / RUN BY / DATE 
Ionosphere parameters A0-A3 unknown                         COMMENT             
Ionosphere parameters B0-B3 unknown                         COMMENT             
Delta-UTC unknown                                           COMMENT             
Leap Seconds unknown                                        COMMENT             
                                                            END OF HEADER       
16 16 04 02 14 00 00.0 -.274232588708D-04  .284217094304D-11  .000000000000D+00
     .200000000000D+01  .675937500000D+02  .389480509141D-08 -.213787031936D+01
     .347942113876D-05  .873516115826D-02  .899471342564D-05  .515373628044D+04
     .568800000000D+06 -.160187482834D-06  .309354716595D+01 -.819563865662D-07
     .991108696135D+00  .223250000000D+03  .352910101814D+00 -.764174688086D-08
     .250367571671D-09  .100000000000D+01  .189000000000D+04  .000000000000D+00
     .000000000000D+00  .000000000000D+00 -.102445483208D-07  .200000000000D+01
     .563946000000D+06  .000000000000D+00                                      
04 16 04 02 14 00 00.0 -.253732781857D-03 -.795807864051D-12  .000000000000D+00
     .200000000000D+01  .673437500000D+02  .531379276937D-08 -.198387514909D+01
     .342354178429D-05  .835991196800D-02  .878423452377D-05  .515363225365D+04
     .568800000000D+06 -.147148966789D-06  .304593612840D+01 -.167638063431D-06
     .983623694801D+00  .222093750000D+03  .865195217094D+00 -.777460955798D-08
     .213223167315D-09  .100000000000D+01  .189000000000D+04  .000000000000D+00
     .200000000000D+01  .100000000000D+01 -.190921127796D-07  .200000000000D+01
     .563946000000D+06  .000000000000D+00                                      
26 16 04 02 14 00 00.0 -.316286925226D-03 -.139834810398D-10  .000000000000D+00
     .200000000000D+01  .670937500000D+02  .456376152756D-08 -.136710198337D+01
     .352226197720D-05  .992985907942D-03  .844523310661D-05  .515373858261D+04
     .568800000000D+06 -.521540641785D-07  .301655789677D+01 -.149011611938D-07
     .960833093001D+00  .217562500000D+03  .697624480117D-01 -.807533637017D-08
     .197151069276D-09  .100000000000D+01  .189000000000D+04  .000000000000D+00
     .000000000000D+00  .000000000000D+00  .698491930962D-08  .200000000000D+01
     .563976000000D+06  .000000000000D+00                                      
16 16 04 02 14 00 00.0 -.274232588708D-04  .284217094304D-11  .000000000000D+00
     .200000000000D+01  .675937500000D+02  .389480509141D-08 -.213787031936D+01
     .347942113876D-05  .873516115826D-02  .899471342564D-05  .515373628044D+04
     .568800000000D+06 -.160187482834D-06  .309354716595D+01 -.819563865662D-07
     .991108696135D+00  .223250000000D+03  .352910101814D+00 -.764174688086D-08
     .250367571671D-09  .100000000000D+01  .189000000000D+04  .000000000000D+00
     .000000000000D+00  .000000000000D+00 -.102445483208D-07  .200000000000D+01
     .563976000000D+06  .000000000000D+00                                      
31 16 04 02 14 00 00.0  .275550875813D-03 -.170530256582D-11  .000000000000D+00
     .200000000000D+01 -.116250000000D+02  .438911139554D-08  .297437654112D+00
    -.735744833946D-06  .824994279537D-02  .999867916107D-05  .515372316933D+04
     .568800000000D+06 -.156462192535D-06  .200915535951D+01 -.128522515297D-06
     .971567770817D+00  .196906250000D+03 -.406554432955D+00 -.798426114795D-08
    -.245724521127D-09  .100000000000D+01  .189000000000D+04  .000000000000D+00
     .000000000000D+00  .000000000000D+00 -.135041773319D-07  .200000000000D+01
     .563976000000D+06  .000000000000D+00                                      
23 16 04 02 14 00 00.0 -.167605467141D-03 -.170530256582D-11  .000000000000D+00
     .200000000000D+01  .121250000000D+02  .524378985347D-08  .192781501941D+01
     .780448317528D-06  .106641429011D-01  .526569783688D-05  .515369530106D+04
     .568800000000D+06  .540167093277D-07  .927409205310D+00  .132247805595D-06
     .946352936747D+00  .270718750000D+03 -.259895625989D+01 -.864393148301D-08
     .289297764699D-10  .100000000000D+01  .189000000000D+04  .000000000000D+00
     .000000000000D+00  .000000000000D+00 -.200234353542D-07  .200000000000D+01
     .563976000000D+06  .000000000000D+00                                      
03 16 04 02 14 00 00.0 -.432357192039D-04 -.420641299570D-11  .000000000000D+00
     .200000000000D+01  .328750000000D+02  .439304013061D-08  .309158683524D+01
     .177137553692D-05  .246962299570D-03  .100042670965D-04  .515373422050D+04
     .568800000000D+06 -.134110450745D-06 -.118050085168D+00  .428408384323D-07
     .959681194231D+00  .187281250000D+03 -.263240437935D+01 -.791461538979D-08
     .362515100209D-09  .100000000000D+01  .189000000000D+04  .000000000000D+00
     .000000000000D+00  .000000000000D+00  .186264514923D-08  .200000000000D+01
     .563976000000D+06  .000000000000D+00                                      
04 16 04 02 14 00 00.0 -.253732781857D-03 -.795807864051D-12  .000000000000D+00
     .200000000000D+01  .673437500000D+02  .531379276937D-08 -.198387514909D+01
     .342354178429D-05  .835991196800D-02  .878423452377D-05  .515363225365D+04
     .568800000000D+06 -.147148966789D-06  .304593612840D+01 -.167638063431D-06
     .983623694801D+00  .222093750000D+03  .865195217094D+00 -.777460955798D-08
     .213223167315D-09  .100000000000D+01  .189000000000D+04  .000000000000D+00
     .200000000000D+01  .100000000000D+01 -.190921127796D-07  .200000000000D+01
     .563976000000D+06  .000000000000D+00                                      
26 16 04 02 14 00 00.0 -.316286925226D-03 -.139834810398D-10  .000000000000D+00
     .200000000000D+01  .670937500000D+02  .456376152756D-08 -.136710198337D+01
     .352226197720D-05  .992985907942D-03  .844523310661D-05  .515373858261D+04
     .568800000000D+06 -.521540641785D-07  .301655789677D+01 -.149011611938D-07
     .960833093001D+00  .217562500000D+03  .697624480117D-01 -.807533637017D-08
     .197151069276D-09  .100000000000D+01  .189000000000D+04  .000000000000D+00
     .000000000000D+00  .000000000000D+00  .698491930962D-08  .200000000000D+01
     .564006000000D+06  .000000000000D+00                                      
16 16 04 02 14 00 00.0 -.274232588708D-04  .284217094304D-11  .000000000000D+00
     .200000000000D+01  .675937500000D+02  .389480509141D-08 -.213787031936D+01
     .347942113876D-05  .873516115826D-02  .899471342564D-05  .515373628044D+04
     .568800000000D+06 -.160187482834D-06  .309354716595D+01 -.819563865662D-07
     .991108696135D+00  .223250000000D+03  .352910101814D+00 -.764174688086D-08
     .250367571671D-09  .100000000000D+01  .189000000000D+04  .000000000000D+00
     .000000000000D+00  .000000000000D+00 -.102445483208D-07  .200000000000D+01
     .564006000000D+06  .000000000000D+00                                      
31 16 04 02 14 00 00.0  .275550875813D-03 -.170530256582D-11  .000000000000D+00
     .200000000000D+01 -.116250000000D+02  .438911139554D-08  .297437654112D+00
    -.735744833946D-06  .824994279537D-02  .999867916107D-05  .515372316933D+04
     .568800000000D+06 -.156462192535D-06  .200915535951D+01 -.128522515297D-06
     .971567770817D+00  .196906250000D+03 -.406554432955D+00 -.798426114795D-08
    -.245724521127D-09  .100000000000D+01  .189000000000D+04  .000000000000D+00
     .000000000000D+00  .000000000000D+00 -.135041773319D-07  .200000000000D+01
     .564006000000D+06  .000000000000D+00                                      
23 16 04 02 14 00 00.0 -.167605467141D-03 -.170530256582D-11  .000000000000D+00
     .200000000000D+01  .121250000000D+02  .524378985347D-08  .192781501941D+01
     .780448317528D-06  .106641429011D-01  .526569783688D-05  .515369530106D+04
     .568800000000D+06  .540167093277D-07  .927409205310D+00  .132247805595D-06
     .946352936747D+00  .270718750000D+03 -.259895625989D+01 -.864393148301D-08
     .289297764699D-10  .100000000000D+01  .189000000000D+04  .000000000000D+00
     .000000000000D+00  .000000000000D+00 -.200234353542D-07  .200000000000D+01
     .564006000000D+06  .000000000000D+00                                      
03 16 04 02 14 00 00.0 -.432357192039D-04 -.420641299570D-11  .000000000000D+00
     .200000000000D+01  .328750000000D+02  .439304013061D-08  .309158683524D+01
     .177137553692D-05  .246962299570D-03  .100042670965D-04  .515373422050D+04
     .568800000000D+06 -.134110450745D-06 -.118050085168D+00  .428408384323D-07
     .959681194231D+00  .187281250000D+03 -.263240437935D+01 -.791461538979D-08
     .362515100209D-09  .100000000000D+01  .189000000000D+04  .000000000000D+00
     .000000000000D+00  .000000000000D+00  .186264514923D-08  .200000000000D+01
     .564006000000D+06  .000000000000D+00                                      
04 16 04 02 14 00 00.0 -.253732781857D-03 -.795807864051D-12  .000000000000D+00
     .200000000000D+01  .673437500000D+02  .531379276937D-08 -.198387514909D+01
     .342354178429D-05  .835991196800D-02  .878423452377D-05  .515363225365D+04
     .568800000000D+06 -.147148966789D-06  .304593612840D+01 -.167638063431D-06
     .983623694801D+00  .222093750000D+03  .865195217094D+00 -.777460955798D-08
     .213223167315D-09  .100000000000D+01  .189000000000D+04  .000000000000D+00
     .200000000000D+01  .100000000000D+01 -.190921127796D-07  .200000000000D+01
     .564006000000D+06  .000000000000D+00                                      
